[{"OBJECT_NAME":"STARLINK-32432","OBJECT_ID":"2024-175Q","EPOCH":"2026-03-09T15:04:14.896416","MEAN_MOTION":15.30202075,"ECCENTRICITY":9.72e-5,"INCLINATION":53.1597,"RA_OF_ASC_NODE":194.3614,"ARG_OF_PERICENTER":61.6966,"MEAN_ANOMALY":298.4133,"EPHEMERIS_TYPE":0,"CLASSIFICATION_TYPE":"U","NORAD_CAT_ID":61257,"ELEMENT_SET_NO":999,"REV_AT_EPOCH":8144,"BSTAR":-3.798e-5,"MEAN_MOTION_DOT":-1.484e-5,"MEAN_MOTION_DDOT":0},{"OBJECT_NAME":"TEVEL2-5","OBJECT_ID":"2025-052E","EPOCH":"2026-03-09T23:11:54.246048","MEAN_MOTION":15.30817434,"ECCENTRICITY":0.00047002,"INCLINATION":97.4013,"RA_OF_ASC_NODE":325.3677,"ARG_OF_PERICENTER":95.3936,"MEAN_ANOMALY":264.7842,"EPHEMERIS_TYPE":0,"CLASSIFICATION_TYPE":"U","NORAD_CAT_ID":63214,"ELEMENT_SET_NO":999,"REV_AT_EPOCH":5491,"BSTAR":0.00071764727,"MEAN_MOTION_DOT":0.00021339,"MEAN_MOTION_DDOT":0}]
